[{"OBJECT_NAME":"KAZSTSAT","OBJECT_ID":"2018-099AB","EPOCH":"2026-03-09T14:51:18.118944","MEAN_MOTION":14.99620503,"ECCENTRICITY":0.0006528,"INCLINATION":97.4396,"RA_OF_ASC_NODE":105.0128,"ARG_OF_PERICENTER":11.1145,"MEAN_ANOMALY":349.0222,"EPHEMERIS_TYPE":0,"CLASSIFICATION_TYPE":"U","NORAD_CAT_ID":43783,"ELEMENT_SET_NO":999,"REV_AT_EPOCH":39638,"BSTAR":0.00011446,"MEAN_MOTION_DOT":1.354e-5,"MEAN_MOTION_DDOT":0},{"OBJECT_NAME":"STARLINK-6087","OBJECT_ID":"2023-078AL","EPOCH":"2026-03-09T22:30:04.617216","MEAN_MOTION":14.9831354,"ECCENTRICITY":0.0002879,"INCLINATION":70.0002,"RA_OF_ASC_NODE":323.7109,"ARG_OF_PERICENTER":265.7258,"MEAN_ANOMALY":94.3572,"EPHEMERIS_TYPE":0,"CLASSIFICATION_TYPE":"U","NORAD_CAT_ID":56801,"ELEMENT_SET_NO":999,"REV_AT_EPOCH":15321,"BSTAR":-0.00023492669,"MEAN_MOTION_DOT":-2.894e-5,"MEAN_MOTION_DDOT":0}]
